{
  "type": "FeatureCollection",
  "features": [
    {
      "type": "Feature",
      "properties": {
        "norad_id": 2807,
        "name": "OPS 7218 (TRANSIT 16)",
        "group": "nnss",
        "lat": 67.88866925722728,
        "lon": 173.07079885256664,
        "alt_km": 1046.8723076200567,
        "timestamp": "2025-12-16T23:36:36.464958+00:00",
        "meta_object_name": "OPS 7218 (TRANSIT 16)",
        "meta_object_id": "1967-048A",
        "meta_epoch": "2025-12-16T02:02:53.095200",
        "meta_mean_motion": 13.50722876,
        "meta_eccentricity": 0.00220729,
        "meta_inclination": 89.6732,
        "meta_ra_of_asc_node": 353.9053,
        "meta_arg_of_pericenter": 105.1561,
        "meta_mean_anomaly": 320.8187,
        "meta_ephemeris_type": 0,
        "meta_classification_type": "U",
        "meta_norad_cat_id": 2807,
        "meta_element_set_no": 999,
        "meta_rev_at_epoch": 88321,
        "meta_bstar": 0.00016544343,
        "meta_mean_motion_dot": 1.17e-06,
        "meta_mean_motion_ddot": 0,
        "tle_line1": "1 02807U 67048A   25350.08533675  .00000117  00000+0  16544-3 0  9995",
        "tle_line2": "2 02807  89.6732 353.9053 0022072 105.1561 320.8187 13.50722876883216"
      },
      "geometry": {
        "type": "Point",
        "coordinates": [
          173.07079885256664,
          67.88866925722728
        ]
      }
    },
    {
      "type": "Feature",
      "properties": {
        "norad_id": 2965,
        "name": "OPS 4947 (TRANSIT 17)",
        "group": "nnss",
        "lat": -38.25561443470175,
        "lon": -155.29563724914053,
        "alt_km": 1031.5764691781196,
        "timestamp": "2025-12-16T23:36:36.464980+00:00",
        "meta_object_name": "OPS 4947 (TRANSIT 17)",
        "meta_object_id": "1967-092A",
        "meta_epoch": "2025-12-16T08:23:41.881056",
        "meta_mean_motion": 13.53454374,
        "meta_eccentricity": 0.0046414,
        "meta_inclination": 89.2493,
        "meta_ra_of_asc_node": 24.1603,
        "meta_arg_of_pericenter": 223.6983,
        "meta_mean_anomaly": 147.3866,
        "meta_ephemeris_type": 0,
        "meta_classification_type": "U",
        "meta_norad_cat_id": 2965,
        "meta_element_set_no": 999,
        "meta_rev_at_epoch": 87146,
        "meta_bstar": 0.00020817322,
        "meta_mean_motion_dot": 1.52e-06,
        "meta_mean_motion_ddot": 0,
        "tle_line1": "1 02965U 67092A   25350.34979029  .00000152  00000+0  20817-3 0  9992",
        "tle_line2": "2 02965  89.2493  24.1603 0046414 223.6983 147.3866 13.53454374871467"
      },
      "geometry": {
        "type": "Point",
        "coordinates": [
          -155.29563724914053,
          -38.25561443470175
        ]
      }
    },
    {
      "type": "Feature",
      "properties": {
        "norad_id": 3133,
        "name": "OPS 7034 (TRANSIT 18)",
        "group": "nnss",
        "lat": -21.56442032783087,
        "lon": -86.33807481934045,
        "alt_km": 1127.0358140452818,
        "timestamp": "2025-12-16T23:36:36.464995+00:00",
        "meta_object_name": "OPS 7034 (TRANSIT 18)",
        "meta_object_id": "1968-012A",
        "meta_epoch": "2025-12-16T08:17:23.214048",
        "meta_mean_motion": 13.51566518,
        "meta_eccentricity": 0.00742032,
        "meta_inclination": 90.0281,
        "meta_ra_of_asc_node": 273.649,
        "meta_arg_of_pericenter": 158.708,
        "meta_mean_anomaly": 315.7433,
        "meta_ephemeris_type": 0,
        "meta_classification_type": "U",
        "meta_norad_cat_id": 3133,
        "meta_element_set_no": 999,
        "meta_rev_at_epoch": 56967,
        "meta_bstar": 0.00013875973,
        "meta_mean_motion_dot": 1.02e-06,
        "meta_mean_motion_ddot": 0,
        "tle_line1": "1 03133U 68012A   25350.34540757  .00000102  00000+0  13876-3 0  9997",
        "tle_line2": "2 03133  90.0281 273.6490 0074203 158.7080 315.7433 13.51566518569678"
      },
      "geometry": {
        "type": "Point",
        "coordinates": [
          -86.33807481934045,
          -21.56442032783087
        ]
      }
    },
    {
      "type": "Feature",
      "properties": {
        "norad_id": 4507,
        "name": "NNSS 19 (TRANSIT 19)",
        "group": "nnss",
        "lat": -53.020927959789034,
        "lon": -125.45616614354262,
        "alt_km": 960.092829321341,
        "timestamp": "2025-12-16T23:36:36.465007+00:00",
        "meta_object_name": "NNSS 19 (TRANSIT 19)",
        "meta_object_id": "1970-067A",
        "meta_epoch": "2025-12-16T06:05:44.978784",
        "meta_mean_motion": 13.51315825,
        "meta_eccentricity": 0.01703645,
        "meta_inclination": 90.0053,
        "meta_ra_of_asc_node": 234.5364,
        "meta_arg_of_pericenter": 283.1053,
        "meta_mean_anomaly": 75.1134,
        "meta_ephemeris_type": 0,
        "meta_classification_type": "U",
        "meta_norad_cat_id": 4507,
        "meta_element_set_no": 999,
        "meta_rev_at_epoch": 72269,
        "meta_bstar": 0.00013643958,
        "meta_mean_motion_dot": 1.04e-06,
        "meta_mean_motion_ddot": 0,
        "tle_line1": "1 04507U 70067A   25350.25399281  .00000104  00000+0  13644-3 0  9995",
        "tle_line2": "2 04507  90.0053 234.5364 0170364 283.1053  75.1134 13.51315825722696"
      },
      "geometry": {
        "type": "Point",
        "coordinates": [
          -125.45616614354262,
          -53.020927959789034
        ]
      }
    },
    {
      "type": "Feature",
      "properties": {
        "norad_id": 6909,
        "name": "NNSS 20 (TRANSIT 20)",
        "group": "nnss",
        "lat": -36.02847649406306,
        "lon": -105.11411678645916,
        "alt_km": 1022.3613615182658,
        "timestamp": "2025-12-16T23:36:36.465018+00:00",
        "meta_object_name": "NNSS 20 (TRANSIT 20)",
        "meta_object_id": "1973-081A",
        "meta_epoch": "2025-12-16T06:16:27.800832",
        "meta_mean_motion": 13.71435959,
        "meta_eccentricity": 0.01565735,
        "meta_inclination": 89.8562,
        "meta_ra_of_asc_node": 255.0014,
        "meta_arg_of_pericenter": 67.8924,
        "meta_mean_anomaly": 293.8778,
        "meta_ephemeris_type": 0,
        "meta_classification_type": "U",
        "meta_norad_cat_id": 6909,
        "meta_element_set_no": 999,
        "meta_rev_at_epoch": 80409,
        "meta_bstar": 0.00024124508,
        "meta_mean_motion_dot": 2.48e-06,
        "meta_mean_motion_ddot": 0,
        "tle_line1": "1 06909U 73081A   25350.26143288  .00000248  00000+0  24125-3 0  9992",
        "tle_line2": "2 06909  89.8562 255.0014 0156573  67.8924 293.8778 13.71435959804096"
      },
      "geometry": {
        "type": "Point",
        "coordinates": [
          -105.11411678645916,
          -36.02847649406306
        ]
      }
    },
    {
      "type": "Feature",
      "properties": {
        "norad_id": 10457,
        "name": "TRANSAT",
        "group": "nnss",
        "lat": -84.69100889672045,
        "lon": 74.65481459506586,
        "alt_km": 1086.265729412,
        "timestamp": "2025-12-16T23:36:36.465029+00:00",
        "meta_object_name": "TRANSAT",
        "meta_object_id": "1977-106A",
        "meta_epoch": "2025-12-16T08:21:02.836800",
        "meta_mean_motion": 13.48944142,
        "meta_eccentricity": 0.00257394,
        "meta_inclination": 89.6481,
        "meta_ra_of_asc_node": 78.4693,
        "meta_arg_of_pericenter": 179.0889,
        "meta_mean_anomaly": 250.1622,
        "meta_ephemeris_type": 0,
        "meta_classification_type": "U",
        "meta_norad_cat_id": 10457,
        "meta_element_set_no": 999,
        "meta_rev_at_epoch": 36792,
        "meta_bstar": 9.5234487e-05,
        "meta_mean_motion_dot": 7e-07,
        "meta_mean_motion_ddot": 0,
        "tle_line1": "1 10457U 77106A   25350.34794950  .00000070  00000+0  95234-4 0  9997",
        "tle_line2": "2 10457  89.6481  78.4693 0025739 179.0889 250.1622 13.48944142367925"
      },
      "geometry": {
        "type": "Point",
        "coordinates": [
          74.65481459506586,
          -84.69100889672045
        ]
      }
    },
    {
      "type": "Feature",
      "properties": {
        "norad_id": 12458,
        "name": "NOVA 1",
        "group": "nnss",
        "lat": 34.809134294558305,
        "lon": -88.77727431154963,
        "alt_km": 1162.442834201216,
        "timestamp": "2025-12-16T23:36:36.465041+00:00",
        "meta_object_name": "NOVA 1",
        "meta_object_id": "1981-044A",
        "meta_epoch": "2025-12-16T08:42:02.496096",
        "meta_mean_motion": 13.23278893,
        "meta_eccentricity": 0.00159386,
        "meta_inclination": 89.8527,
        "meta_ra_of_asc_node": 91.334,
        "meta_arg_of_pericenter": 95.1312,
        "meta_mean_anomaly": 332.1408,
        "meta_ephemeris_type": 0,
        "meta_classification_type": "U",
        "meta_norad_cat_id": 12458,
        "meta_element_set_no": 999,
        "meta_rev_at_epoch": 15234,
        "meta_bstar": 5.1202451e-05,
        "meta_mean_motion_dot": 3.1e-07,
        "meta_mean_motion_ddot": 0,
        "tle_line1": "1 12458U 81044A   25350.36252889  .00000031  00000+0  51202-4 0  9992",
        "tle_line2": "2 12458  89.8527  91.3340 0015938  95.1312 332.1408 13.23278893152340"
      },
      "geometry": {
        "type": "Point",
        "coordinates": [
          -88.77727431154963,
          34.809134294558305
        ]
      }
    }
  ]
}